{"type": "FeatureCollection", "features": [ {"type": "Feature", "properties": {"norad_id": 37834, "name": "INTELSAT 18 (IS-18)", "group": "intelsat", "lat": 0.006593875666002587, "lon": 152.81451576498847, "alt_km": 35789.49937441574, "timestamp": "2025-12-09T16:56:36.248072+00:00", "meta": {"OBJECT_NAME": "INTELSAT 18 (IS-18)", "OBJECT_ID": "2011-056A", "EPOCH": "2025-12-09T11:00:14.945184", "MEAN_MOTION": 1.00271428, "ECCENTRICITY": 0.0002056, "INCLINATION": 0.0179, "RA_OF_ASC_NODE": 343.2301, "ARG_OF_PERICENTER": 282.1616, "MEAN_ANOMALY": 158.1156, "EPHEMERIS_TYPE": 0, "CLASSIFICATION_TYPE": "U", "NORAD_CAT_ID": 37834, "ELEMENT_SET_NO": 999, "REV_AT_EPOCH": 5190, "BSTAR": 0, "MEAN_MOTION_DOT": 5.5e-07, "MEAN_MOTION_DDOT": 0}, "tle": {"line1": "1 37834U 11056A   25343.45850631  .00000055  00000+0  00000+0 0  9995", "line2": "2 37834   0.0179 343.2301 0002056 282.1616 158.1156  1.00271428 51906"}}, "geometry": {"type": "Point", "coordinates": [152.81451576498847, 0.006593875666002587]}}, {"type": "Feature", "properties": {"norad_id": 38098, "name": "INTELSAT 22 (IS-22)", "group": "intelsat", "lat": 0.03490370334588044, "lon": 44.973821328389285, "alt_km": 35790.42325528016, "timestamp": "2025-12-09T16:56:36.248085+00:00", "meta": {"OBJECT_NAME": "INTELSAT 22 (IS-22)", "OBJECT_ID": "2012-011A", "EPOCH": "2025-12-09T10:29:32.885952", "MEAN_MOTION": 1.00274412, "ECCENTRICITY": 0.0001554, "INCLINATION": 0.0179, "RA_OF_ASC_NODE": 312.5173, "ARG_OF_PERICENTER": 311.8993, "MEAN_ANOMALY": 43.5177, "EPHEMERIS_TYPE": 0, "CLASSIFICATION_TYPE": "U", "NORAD_CAT_ID": 38098, "ELEMENT_SET_NO": 999, "REV_AT_EPOCH": 528, "BSTAR": 0, "MEAN_MOTION_DOT": -5.7e-07, "MEAN_MOTION_DDOT": 0}, "tle": {"line1": "1 38098U 12011A   25343.43718618 -.00000057  00000+0  00000+0 0  9999", "line2": "2 38098   0.0179 312.5173 0001554 311.8993  43.5177  1.00274412  5281"}}, "geometry": {"type": "Point", "coordinates": [44.973821328389285, 0.03490370334588044]}}, {"type": "Feature", "properties": {"norad_id": 38356, "name": "INTELSAT 19 (IS-19)", "group": "intelsat", "lat": 0.011519971935204048, "lon": 138.81281776761261, "alt_km": 35795.20532964348, "timestamp": "2025-12-09T16:56:36.248096+00:00", "meta": {"OBJECT_NAME": "INTELSAT 19 (IS-19)", "OBJECT_ID": "2012-030A", "EPOCH": "2025-12-09T12:27:23.105088", "MEAN_MOTION": 1.00271719, "ECCENTRICITY": 0.0003533, "INCLINATION": 0.0088, "RA_OF_ASC_NODE": 342.2441, "ARG_OF_PERICENTER": 284.1388, "MEAN_ANOMALY": 164.9765, "EPHEMERIS_TYPE": 0, "CLASSIFICATION_TYPE": "U", "NORAD_CAT_ID": 38356, "ELEMENT_SET_NO": 999, "REV_AT_EPOCH": 4854, "BSTAR": 0, "MEAN_MOTION_DOT": -5.4e-07, "MEAN_MOTION_DDOT": 0}, "tle": {"line1": "1 38356U 12030A   25343.51901742 -.00000054  00000+0  00000+0 0  9995", "line2": "2 38356   0.0088 342.2441 0003533 284.1388 164.9765  1.00271719 48548"}}, "geometry": {"type": "Point", "coordinates": [138.81281776761261, 0.011519971935204048]}}, {"type": "Feature", "properties": {"norad_id": 38740, "name": "INTELSAT 20 (IS-20)", "group": "intelsat", "lat": 0.0012753729056217177, "lon": 41.33029916891748, "alt_km": 35796.1241377974, "timestamp": "2025-12-09T16:56:36.248109+00:00", "meta": {"OBJECT_NAME": "INTELSAT 20 (IS-20)", "OBJECT_ID": "2012-043A", "EPOCH": "2025-12-09T10:28:32.982240", "MEAN_MOTION": 1.00270091, "ECCENTRICITY": 0.0002883, "INCLINATION": 0.0032, "RA_OF_ASC_NODE": 78.3877, "ARG_OF_PERICENTER": 105.0691, "MEAN_ANOMALY": 120.6193, "EPHEMERIS_TYPE": 0, "CLASSIFICATION_TYPE": "U", "NORAD_CAT_ID": 38740, "ELEMENT_SET_NO": 999, "REV_AT_EPOCH": 4884, "BSTAR": 0, "MEAN_MOTION_DOT": -2.2e-07, "MEAN_MOTION_DDOT": 0}, "tle": {"line1": "1 38740U 12043A   25343.43649285 -.00000022  00000+0  00000+0 0  9993", "line2": "2 38740   0.0032  78.3877 0002883 105.0691 120.6193  1.00270091 48848"}}, "geometry": {"type": "Point", "coordinates": [41.33029916891748, 0.0012753729056217177]}}, {"type": "Feature", "properties": {"norad_id": 38749, "name": "INTELSAT 21 (IS-21)", "group": "intelsat", "lat": -0.024807369938366627, "lon": -85.14996119053048, "alt_km": 35777.86324238255, "timestamp": "2025-12-09T16:56:36.248121+00:00", "meta": {"OBJECT_NAME": "INTELSAT 21 (IS-21)", "OBJECT_ID": "2012-045A", "EPOCH": "2025-12-09T09:52:21.447840", "MEAN_MOTION": 1.0027042, "ECCENTRICITY": 0.0002162, "INCLINATION": 0.0119, "RA_OF_ASC_NODE": 33.9512, "ARG_OF_PERICENTER": 221.5533, "MEAN_ANOMALY": 272.99, "EPHEMERIS_TYPE": 0, "CLASSIFICATION_TYPE": "U", "NORAD_CAT_ID": 38749, "ELEMENT_SET_NO": 999, "REV_AT_EPOCH": 4862, "BSTAR": 0, "MEAN_MOTION_DOT": -2.83e-06, "MEAN_MOTION_DDOT": 0}, "tle": {"line1": "1 38749U 12045A   25343.41135935 -.00000283  00000+0  00000+0 0  9993", "line2": "2 38749   0.0119  33.9512 0002162 221.5533 272.9900  1.00270420 48624"}}, "geometry": {"type": "Point", "coordinates": [-85.14996119053048, -0.024807369938366627]}}, {"type": "Feature", "properties": {"norad_id": 38867, "name": "INTELSAT 23 (IS-23)", "group": "intelsat", "lat": -0.02286936912159994, "lon": -80.1711418904477, "alt_km": 35788.18783653246, "timestamp": "2025-12-09T16:56:36.248133+00:00", "meta": {"OBJECT_NAME": "INTELSAT 23 (IS-23)", "OBJECT_ID": "2012-057A", "EPOCH": "2025-12-09T09:53:51.304704", "MEAN_MOTION": 1.00260494, "ECCENTRICITY": 0.0002038, "INCLINATION": 0.0422, "RA_OF_ASC_NODE": 93.9676, "ARG_OF_PERICENTER": 103.0006, "MEAN_ANOMALY": 336.8761, "EPHEMERIS_TYPE": 0, "CLASSIFICATION_TYPE": "U", "NORAD_CAT_ID": 38867, "ELEMENT_SET_NO": 999, "REV_AT_EPOCH": 4805, "BSTAR": 0, "MEAN_MOTION_DOT": -2.82e-06, "MEAN_MOTION_DDOT": 0}, "tle": {"line1": "1 38867U 12057A   25343.41239936 -.00000282  00000+0  00000+0 0  9992", "line2": "2 38867   0.0422  93.9676 0002038 103.0006 336.8761  1.00260494 48052"}}, "geometry": {"type": "Point", "coordinates": [-80.1711418904477, -0.02286936912159994]}}, {"type": "Feature", "properties": {"norad_id": 39360, "name": "FM-6", "group": "intelsat", "lat": -0.0018211569104050447, "lon": -143.28588070973774, "alt_km": 35777.947634303724, "timestamp": "2025-12-09T16:56:36.248145+00:00", "meta": {"OBJECT_NAME": "FM-6", "OBJECT_ID": "2013-058A", "EPOCH": "2025-12-09T11:12:09.804096", "MEAN_MOTION": 1.00269349, "ECCENTRICITY": 0.0002874, "INCLINATION": 0.0058, "RA_OF_ASC_NODE": 83.0174, "ARG_OF_PERICENTER": 90.5467, "MEAN_ANOMALY": 316.787, "EPHEMERIS_TYPE": 0, "CLASSIFICATION_TYPE": "U", "NORAD_CAT_ID": 39360, "ELEMENT_SET_NO": 999, "REV_AT_EPOCH": 4417, "BSTAR": 0, "MEAN_MOTION_DOT": -1.4e-07, "MEAN_MOTION_DDOT": 0}, "tle": {"line1": "1 39360U 13058A   25343.46678014 -.00000014  00000+0  00000+0 0  9995", "line2": "2 39360   0.0058  83.0174 0002874  90.5467 316.7870  1.00269349 44173"}}, "geometry": {"type": "Point", "coordinates": [-143.28588070973774, -0.0018211569104050447]}}, {"type": "Feature", "properties": {"norad_id": 40271, "name": "INTELSAT 30 (IS-30)", "group": "intelsat", "lat": -0.026038165387410977, "lon": -122.21514803445157, "alt_km": 35791.90797435823, "timestamp": "2025-12-09T16:56:36.248157+00:00", "meta": {"OBJECT_NAME": "INTELSAT 30 (IS-30)", "OBJECT_ID": "2014-062A", "EPOCH": "2025-12-09T12:22:48.556128", "MEAN_MOTION": 1.00269053, "ECCENTRICITY": 0.00013, "INCLINATION": 0.0144, "RA_OF_ASC_NODE": 15.4205, "ARG_OF_PERICENTER": 65.9123, "MEAN_ANOMALY": 87.8151, "EPHEMERIS_TYPE": 0, "CLASSIFICATION_TYPE": "U", "NORAD_CAT_ID": 40271, "ELEMENT_SET_NO": 999, "REV_AT_EPOCH": 488, "BSTAR": 0, "MEAN_MOTION_DOT": -1.48e-06, "MEAN_MOTION_DDOT": 0}, "tle": {"line1": "1 40271U 14062A   25343.51583977 -.00000148  00000+0  00000+0 0  9991", "line2": "2 40271   0.0144  15.4205 0001300  65.9123  87.8151  1.00269053  4888"}}, "geometry": {"type": "Point", "coordinates": [-122.21514803445157, -0.026038165387410977]}}, {"type": "Feature", "properties": {"norad_id": 40333, "name": "DIRECTV 14", "group": "intelsat", "lat": -0.037368998642210216, "lon": -126.35706066466958, "alt_km": 35778.188308788776, "timestamp": "2025-12-09T16:56:36.248169+00:00", "meta": {"OBJECT_NAME": "DIRECTV 14", "OBJECT_ID": "2014-078B", "EPOCH": "2025-12-09T10:14:01.480128", "MEAN_MOTION": 1.00285429, "ECCENTRICITY": 9.85e-05, "INCLINATION": 0.0183, "RA_OF_ASC_NODE": 330.534, "ARG_OF_PERICENTER": 274.6028, "MEAN_ANOMALY": 247.5776, "EPHEMERIS_TYPE": 0, "CLASSIFICATION_TYPE": "U", "NORAD_CAT_ID": 40333, "ELEMENT_SET_NO": 999, "REV_AT_EPOCH": 4014, "BSTAR": 0, "MEAN_MOTION_DOT": -1.25e-06, "MEAN_MOTION_DDOT": 0}, "tle": {"line1": "1 40333U 14078B   25343.42640602 -.00000125  00000+0  00000+0 0  9991", "line2": "2 40333   0.0183 330.5340 0000985 274.6028 247.5776  1.00285429 40144"}}, "geometry": {"type": "Point", "coordinates": [-126.35706066466958, -0.037368998642210216]}}, {"type": "Feature", "properties": {"norad_id": 40663, "name": "DIRECTV 15", "group": "intelsat", "lat": 0.00021591073289971727, "lon": -130.03219162800954, "alt_km": 35786.19607845261, "timestamp": "2025-12-09T16:56:36.248181+00:00", "meta": {"OBJECT_NAME": "DIRECTV 15", "OBJECT_ID": "2015-026A", "EPOCH": "2025-12-09T10:11:45.197088", "MEAN_MOTION": 1.00269059, "ECCENTRICITY": 3.17e-05, "INCLINATION": 0.0393, "RA_OF_ASC_NODE": 81.7138, "ARG_OF_PERICENTER": 209.1617, "MEAN_ANOMALY": 197.6116, "EPHEMERIS_TYPE": 0, "CLASSIFICATION_TYPE": "U", "NORAD_CAT_ID": 40663, "ELEMENT_SET_NO": 999, "REV_AT_EPOCH": 3856, "BSTAR": 0, "MEAN_MOTION_DOT": -1e-06, "MEAN_MOTION_DDOT": 0}, "tle": {"line1": "1 40663U 15026A   25343.42482867 -.00000100  00000+0  00000+0 0  9991", "line2": "2 40663   0.0393  81.7138 0000317 209.1617 197.6116  1.00269059 38566"}}, "geometry": {"type": "Point", "coordinates": [-130.03219162800954, 0.00021591073289971727]}}]}